{
    "links": {
        "self": "http://www.neowsapp.com/rest/v1/neo/3787627?api_key=iIulBulltgU6a56xZRHN4H3l9WmuAYTsLGpBGhQ2"
    },
    "id": "3787627",
    "neo_reference_id": "3787627",
    "name": "(2017 UU2)",
    "designation": "2017 UU2",
    "nasa_jpl_url": "http://ssd.jpl.nasa.gov/sbdb.cgi?sstr=3787627",
    "absolute_magnitude_h": 26.4,
    "estimated_diameter": {
        "kilometers": {
            "estimated_diameter_min": 0.0139493823,
            "estimated_diameter_max": 0.0311917671
        },
        "meters": {
            "estimated_diameter_min": 13.9493822934,
            "estimated_diameter_max": 31.1917670523
        },
        "miles": {
            "estimated_diameter_min": 0.0086677416,
            "estimated_diameter_max": 0.0193816595
        },
        "feet": {
            "estimated_diameter_min": 45.7656914036,
            "estimated_diameter_max": 102.3351970157
        }
    },
    "is_potentially_hazardous_asteroid": false,
    "close_approach_data": [
        {
            "close_approach_date": "2017-10-24",
            "close_approach_date_full": "2017-Oct-24 19:18",
            "epoch_date_close_approach": 1508872680000,
            "relative_velocity": {
                "kilometers_per_second": "11.3289005512",
                "kilometers_per_hour": "40784.0419842653",
                "miles_per_hour": "25341.6176429453"
            },
            "miss_distance": {
                "astronomical": "0.0053940728",
                "lunar": "2.0982943192",
                "kilometers": "806941.801504936",
                "miles": "501410.3847466768"
            },
            "orbiting_body": "Earth"
        },
        {
            "close_approach_date": "2017-10-24",
            "close_approach_date_full": "2017-Oct-24 20:37",
            "epoch_date_close_approach": 1508877420000,
            "relative_velocity": {
                "kilometers_per_second": "12.2698607799",
                "kilometers_per_hour": "44171.4988077034",
                "miles_per_hour": "27446.4515785977"
            },
            "miss_distance": {
                "astronomical": "0.0064198205",
                "lunar": "2.4973101745",
                "kilometers": "960391.472582335",
                "miles": "596759.588952823"
            },
            "orbiting_body": "Moon"
        }
    ],
    "orbital_data": {
        "orbit_id": "2",
        "orbit_determination_date": "2017-10-24 06:21:51",
        "first_observation_date": "2017-10-21",
        "last_observation_date": "2017-10-24",
        "data_arc_in_days": 3,
        "observations_used": 28,
        "orbit_uncertainty": "8",
        "minimum_orbit_intersection": ".00516055",
        "jupiter_tisserand_invariant": "3.865",
        "epoch_osculation": "2458048.5",
        "eccentricity": ".5263625253448203",
        "semi_major_axis": "1.819500155720445",
        "inclination": "1.685798761567542",
        "ascending_node_longitude": "221.5927729746811",
        "orbital_period": "896.451034038276",
        "perihelion_distance": ".8617834588901376",
        "perihelion_argument": "222.030755969554",
        "aphelion_distance": "2.777216852550752",
        "perihelion_time": "2458089.186124557844",
        "mean_anomaly": "343.6611211492022",
        "mean_motion": ".4015835626607454",
        "equinox": "J2000",
        "orbit_class": {
            "orbit_class_type": "APO",
            "orbit_class_description": "Near-Earth asteroid orbits which cross the Earth’s orbit similar to that of 1862 Apollo",
            "orbit_class_range": "a (semi-major axis) > 1.0 AU; q (perihelion) < 1.017 AU"
        }
    },
    "is_sentry_object": false
}